FARADAY_PHOENIX         
1 48924U 21059AX  26066.00143774  .00076127  00000+0  93544-3 0  9990
2 48924  97.6911 254.2531 0006421 340.1223  19.9781 15.60011137261641
DEMO8 (TENZING)         
1 48951U 21059CA  26066.04972443  .00025203  00000+0  43718-3 0  9994
2 48951  97.7042 251.9823 0007220   5.9009 354.2326 15.50838030261458
NAPA-2                  
1 48963U 21059CN  26066.17585377  .00113586  00000+0  92136-3 0  9997
2 48963  97.6845 253.4159 0003683 326.5719  33.5309 15.70387996261684
JILIN-1 GAOFEN 3D03     
1 49006U 21061D   26065.38845419  .00184355  00000+0  10453-2 0  9990
2 49006  97.3032 142.1959 0002570 143.9407 216.2033 15.78529244260022
XINGSHIDAI 10           
1 49007U 21061E   26066.23004865  .00199120  00000+0  12268-2 0  9990
2 49007  97.3014 142.7683 0001859 135.1176 225.0241 15.76611230260134
FENGYUN 3E              
1 49008U 21062A   26066.23569331 -.00000058  00000+0 -63767-5 0  9992
2 49008  98.7511  70.7765 0002410  46.3682 313.7694 14.19893078242115
ISS (NAUKA)             
1 49044U 21066A   26065.86737742  .00008564  00000+0  16627-3 0  9996
2 49044  51.6318  86.3097 0008109 164.5613 195.5624 15.48482048555656
STARLINK-3100           
1 49144U 21082Q   26066.09780755 -.00000957  00000+0 -72381-4 0  9993
2 49144  69.9987 300.9816 0002727 269.0988  90.9859 14.98335711245596
CUTE                    
1 49263U 21088D   26066.18831434  .00058143  00000+0  55715-3 0  9991
2 49263  97.4230 158.2500 0003102 326.1246  33.9815 15.66483376246484
2021-091B               
1 49316U 21091B   26066.16917874  .00003737  00000+0  18692-3 0  9997
2 49316  97.4475 255.3206 0014528  41.1816 319.0511 15.17956344243504
SDGSAT 1                
1 49387U 21100A   26066.16847475  .00001270  00000+0  63197-4 0  9996
2 49387  97.2771 116.8654 0006500 295.7917  64.2647 15.19336421240424
TEIKYOSAT-4 (OORURI)    
1 49396U 21102B   26066.08940560  .00002643  00000+0  17039-3 0  9996
2 49396  97.3798  99.5051 0010470 286.5951  73.4128 15.09103610237321
Z-SAT                   
1 49399U 21102E   26066.14680899  .00003853  00000+0  19563-3 0  9990
2 49399  97.3461 104.5579 0015323 240.2560 119.7150 15.17389459237963
HIBARI                  
1 49400U 21102F   26066.08855406  .00012810  00000+0  44978-3 0  9995
2 49400  97.3378 113.2426 0011843 195.8157 164.2715 15.29470871238573
KOSEN-1                 
1 49402U 21102H   26066.05087877  .00009308  00000+0  37190-3 0  9999
2 49402  97.3330 110.2273 0013635 202.0412 158.0241 15.25257231238446
GLOBAL-14               
1 49469U 21106A   26065.31640310  .00030385  00000+0  62008-3 0  9996
2 49469  42.0046 180.1673 0012811  22.3189 337.8209 15.45493281242185
GAOFEN-3 02             
1 49495U 21109A   26066.20191627  .00000205  00000+0  75326-4 0  9995
2 49495  98.4128  75.7315 0001721 320.5739  39.5325 14.42215687225616
