[{"OBJECT_NAME":"FARADAY_PHOENIX","OBJECT_ID":"2021-059AX","EPOCH":"2026-03-07T00:02:04.220736","MEAN_MOTION":15.60011137,"ECCENTRICITY":0.0006421,"INCLINATION":97.6911,"RA_OF_ASC_NODE":254.2531,"ARG_OF_PERICENTER":340.1223,"MEAN_ANOMALY":19.9781,"EPHEMERIS_TYPE":0,"CLASSIFICATION_TYPE":"U","NORAD_CAT_ID":48924,"ELEMENT_SET_NO":999,"REV_AT_EPOCH":26164,"BSTAR":0.00093544,"MEAN_MOTION_DOT":0.00076127,"MEAN_MOTION_DDOT":0},{"OBJECT_NAME":"DEMO8 (TENZING)","OBJECT_ID":"2021-059CA","EPOCH":"2026-03-07T01:11:36.190752","MEAN_MOTION":15.5083803,"ECCENTRICITY":0.000722,"INCLINATION":97.7042,"RA_OF_ASC_NODE":251.9823,"ARG_OF_PERICENTER":5.9009,"MEAN_ANOMALY":354.2326,"EPHEMERIS_TYPE":0,"CLASSIFICATION_TYPE":"U","NORAD_CAT_ID":48951,"ELEMENT_SET_NO":999,"REV_AT_EPOCH":26145,"BSTAR":0.00043718,"MEAN_MOTION_DOT":0.00025203,"MEAN_MOTION_DDOT":0},{"OBJECT_NAME":"NAPA-2","OBJECT_ID":"2021-059CN","EPOCH":"2026-03-07T04:13:13.765728","MEAN_MOTION":15.70387996,"ECCENTRICITY":0.0003683,"INCLINATION":97.6845,"RA_OF_ASC_NODE":253.4159,"ARG_OF_PERICENTER":326.5719,"MEAN_ANOMALY":33.5309,"EPHEMERIS_TYPE":0,"CLASSIFICATION_TYPE":"U","NORAD_CAT_ID":48963,"ELEMENT_SET_NO":999,"REV_AT_EPOCH":26168,"BSTAR":0.00092136,"MEAN_MOTION_DOT":0.00113586,"MEAN_MOTION_DDOT":0},{"OBJECT_NAME":"JILIN-1 GAOFEN 3D03","OBJECT_ID":"2021-061D","EPOCH":"2026-03-06T09:19:22.442016","MEAN_MOTION":15.78529244,"ECCENTRICITY":0.00025706,"INCLINATION":97.3032,"RA_OF_ASC_NODE":142.1959,"ARG_OF_PERICENTER":143.9407,"MEAN_ANOMALY":216.2033,"EPHEMERIS_TYPE":0,"CLASSIFICATION_TYPE":"U","NORAD_CAT_ID":49006,"ELEMENT_SET_NO":999,"REV_AT_EPOCH":26002,"BSTAR":0.001045319,"MEAN_MOTION_DOT":0.00184355,"MEAN_MOTION_DDOT":0},{"OBJECT_NAME":"XINGSHIDAI 10","OBJECT_ID":"2021-061E","EPOCH":"2026-03-07T05:31:16.203360","MEAN_MOTION":15.7661123,"ECCENTRICITY":0.0001859,"INCLINATION":97.3014,"RA_OF_ASC_NODE":142.7683,"ARG_OF_PERICENTER":135.1176,"MEAN_ANOMALY":225.0241,"EPHEMERIS_TYPE":0,"CLASSIFICATION_TYPE":"U","NORAD_CAT_ID":49007,"ELEMENT_SET_NO":999,"REV_AT_EPOCH":26013,"BSTAR":0.0012268,"MEAN_MOTION_DOT":0.0019912,"MEAN_MOTION_DDOT":0},{"OBJECT_NAME":"FENGYUN 3E","OBJECT_ID":"2021-062A","EPOCH":"2026-03-07T05:39:23.901984","MEAN_MOTION":14.19893078,"ECCENTRICITY":0.000241,"INCLINATION":98.7511,"RA_OF_ASC_NODE":70.7765,"ARG_OF_PERICENTER":46.3682,"MEAN_ANOMALY":313.7694,"EPHEMERIS_TYPE":0,"CLASSIFICATION_TYPE":"U","NORAD_CAT_ID":49008,"ELEMENT_SET_NO":999,"REV_AT_EPOCH":24211,"BSTAR":-6.3767e-6,"MEAN_MOTION_DOT":-5.8e-7,"MEAN_MOTION_DDOT":0},{"OBJECT_NAME":"ISS (NAUKA)","OBJECT_ID":"2021-066A","EPOCH":"2026-03-06T20:49:01.409088","MEAN_MOTION":15.48482048,"ECCENTRICITY":0.0008109,"INCLINATION":51.6318,"RA_OF_ASC_NODE":86.3097,"ARG_OF_PERICENTER":164.5613,"MEAN_ANOMALY":195.5624,"EPHEMERIS_TYPE":0,"CLASSIFICATION_TYPE":"U","NORAD_CAT_ID":49044,"ELEMENT_SET_NO":999,"REV_AT_EPOCH":55565,"BSTAR":0.00016627,"MEAN_MOTION_DOT":8.564e-5,"MEAN_MOTION_DDOT":0},{"OBJECT_NAME":"STARLINK-3100","OBJECT_ID":"2021-082Q","EPOCH":"2026-03-07T02:20:50.572320","MEAN_MOTION":14.98335711,"ECCENTRICITY":0.0002727,"INCLINATION":69.9987,"RA_OF_ASC_NODE":300.9816,"ARG_OF_PERICENTER":269.0988,"MEAN_ANOMALY":90.9859,"EPHEMERIS_TYPE":0,"CLASSIFICATION_TYPE":"U","NORAD_CAT_ID":49144,"ELEMENT_SET_NO":999,"REV_AT_EPOCH":24559,"BSTAR":-7.2381e-5,"MEAN_MOTION_DOT":-9.57e-6,"MEAN_MOTION_DDOT":0},{"OBJECT_NAME":"CUTE","OBJECT_ID":"2021-088D","EPOCH":"2026-03-07T04:31:10.358976","MEAN_MOTION":15.66483376,"ECCENTRICITY":0.0003102,"INCLINATION":97.423,"RA_OF_ASC_NODE":158.25,"ARG_OF_PERICENTER":326.1246,"MEAN_ANOMALY":33.9815,"EPHEMERIS_TYPE":0,"CLASSIFICATION_TYPE":"U","NORAD_CAT_ID":49263,"ELEMENT_SET_NO":999,"REV_AT_EPOCH":24648,"BSTAR":0.00055715,"MEAN_MOTION_DOT":0.00058143,"MEAN_MOTION_DDOT":0},{"OBJECT_NAME":"2021-091B","OBJECT_ID":"2021-091B","EPOCH":"2026-03-07T04:03:37.043136","MEAN_MOTION":15.17956344,"ECCENTRICITY":0.0014528,"INCLINATION":97.4475,"RA_OF_ASC_NODE":255.3206,"ARG_OF_PERICENTER":41.1816,"MEAN_ANOMALY":319.0511,"EPHEMERIS_TYPE":0,"CLASSIFICATION_TYPE":"U","NORAD_CAT_ID":49316,"ELEMENT_SET_NO":999,"REV_AT_EPOCH":24350,"BSTAR":0.00018692,"MEAN_MOTION_DOT":3.737e-5,"MEAN_MOTION_DDOT":0},{"OBJECT_NAME":"SDGSAT 1","OBJECT_ID":"2021-100A","EPOCH":"2026-03-07T04:02:36.218400","MEAN_MOTION":15.19336421,"ECCENTRICITY":0.00065,"INCLINATION":97.2771,"RA_OF_ASC_NODE":116.8654,"ARG_OF_PERICENTER":295.7917,"MEAN_ANOMALY":64.2647,"EPHEMERIS_TYPE":0,"CLASSIFICATION_TYPE":"U","NORAD_CAT_ID":49387,"ELEMENT_SET_NO":999,"REV_AT_EPOCH":24042,"BSTAR":6.3197e-5,"MEAN_MOTION_DOT":1.27e-5,"MEAN_MOTION_DDOT":0},{"OBJECT_NAME":"TEIKYOSAT-4 (OORURI)","OBJECT_ID":"2021-102B","EPOCH":"2026-03-07T02:08:44.643840","MEAN_MOTION":15.0910361,"ECCENTRICITY":0.001047,"INCLINATION":97.3798,"RA_OF_ASC_NODE":99.5051,"ARG_OF_PERICENTER":286.5951,"MEAN_ANOMALY":73.4128,"EPHEMERIS_TYPE":0,"CLASSIFICATION_TYPE":"U","NORAD_CAT_ID":49396,"ELEMENT_SET_NO":999,"REV_AT_EPOCH":23732,"BSTAR":0.00017039,"MEAN_MOTION_DOT":2.643e-5,"MEAN_MOTION_DDOT":0},{"OBJECT_NAME":"Z-SAT","OBJECT_ID":"2021-102E","EPOCH":"2026-03-07T03:31:24.296736","MEAN_MOTION":15.17389459,"ECCENTRICITY":0.0015323,"INCLINATION":97.3461,"RA_OF_ASC_NODE":104.5579,"ARG_OF_PERICENTER":240.256,"MEAN_ANOMALY":119.715,"EPHEMERIS_TYPE":0,"CLASSIFICATION_TYPE":"U","NORAD_CAT_ID":49399,"ELEMENT_SET_NO":999,"REV_AT_EPOCH":23796,"BSTAR":0.00019563,"MEAN_MOTION_DOT":3.853e-5,"MEAN_MOTION_DDOT":0},{"OBJECT_NAME":"HIBARI","OBJECT_ID":"2021-102F","EPOCH":"2026-03-07T02:07:31.070784","MEAN_MOTION":15.29470871,"ECCENTRICITY":0.0011843,"INCLINATION":97.3378,"RA_OF_ASC_NODE":113.2426,"ARG_OF_PERICENTER":195.8157,"MEAN_ANOMALY":164.2715,"EPHEMERIS_TYPE":0,"CLASSIFICATION_TYPE":"U","NORAD_CAT_ID":49400,"ELEMENT_SET_NO":999,"REV_AT_EPOCH":23857,"BSTAR":0.00044978,"MEAN_MOTION_DOT":0.0001281,"MEAN_MOTION_DDOT":0},{"OBJECT_NAME":"KOSEN-1","OBJECT_ID":"2021-102H","EPOCH":"2026-03-07T01:13:15.925728","MEAN_MOTION":15.25257231,"ECCENTRICITY":0.0013635,"INCLINATION":97.333,"RA_OF_ASC_NODE":110.2273,"ARG_OF_PERICENTER":202.0412,"MEAN_ANOMALY":158.0241,"EPHEMERIS_TYPE":0,"CLASSIFICATION_TYPE":"U","NORAD_CAT_ID":49402,"ELEMENT_SET_NO":999,"REV_AT_EPOCH":23844,"BSTAR":0.0003719,"MEAN_MOTION_DOT":9.308e-5,"MEAN_MOTION_DDOT":0},{"OBJECT_NAME":"GLOBAL-14","OBJECT_ID":"2021-106A","EPOCH":"2026-03-06T07:35:37.227840","MEAN_MOTION":15.45493281,"ECCENTRICITY":0.00128114,"INCLINATION":42.0046,"RA_OF_ASC_NODE":180.1673,"ARG_OF_PERICENTER":22.3189,"MEAN_ANOMALY":337.8209,"EPHEMERIS_TYPE":0,"CLASSIFICATION_TYPE":"U","NORAD_CAT_ID":49469,"ELEMENT_SET_NO":999,"REV_AT_EPOCH":24218,"BSTAR":0.00062007603,"MEAN_MOTION_DOT":0.00030385,"MEAN_MOTION_DDOT":0},{"OBJECT_NAME":"GAOFEN-3 02","OBJECT_ID":"2021-109A","EPOCH":"2026-03-07T04:50:45.565728","MEAN_MOTION":14.42215687,"ECCENTRICITY":0.0001721,"INCLINATION":98.4128,"RA_OF_ASC_NODE":75.7315,"ARG_OF_PERICENTER":320.5739,"MEAN_ANOMALY":39.5325,"EPHEMERIS_TYPE":0,"CLASSIFICATION_TYPE":"U","NORAD_CAT_ID":49495,"ELEMENT_SET_NO":999,"REV_AT_EPOCH":22561,"BSTAR":7.5326e-5,"MEAN_MOTION_DOT":2.05e-6,"MEAN_MOTION_DDOT":0}]
